COSMOS 2503             
1 40420U 15009A   26068.69626972  .00002817  00000+0  19590-3 0  9998
2 40420  97.8437 123.7175 0015321 225.7450 134.2520 15.06275973603958
STARLINK-5711           
1 55471U 23015Y   26067.13871294 -.00002481  00000+0 -16881-3 0  9992
2 55471  43.0038 334.1590 0001582 247.6794 112.3881 15.02506612170529
